{"type": "FeatureCollection", "features": [{"type": "Feature", "properties": {"share": 3.27, "total": 20975, "postcodes": 3}, "geometry": {"type": "Polygon", "coordinates": [[[114.0, -29.0], [114.0, -28.0], [115.0, -28.0], [115.0, -29.0], [114.0, -29.0]]]}}, {"type": "Feature", "properties": {"share": 4.47, "total": 5281, "postcodes": 2}, "geometry": {"type": "Polygon", "coordinates": [[[114.0, -28.0], [114.0, -27.0], [115.0, -27.0], [115.0, -28.0], [114.0, -28.0]]]}}, {"type": "Feature", "properties": {"share": 4.15, "total": 2481, "postcodes": 1}, "geometry": {"type": "Polygon", "coordinates": [[[114.0, -25.0], [114.0, -24.0], [115.0, -24.0], [115.0, -25.0], [114.0, -25.0]]]}}, {"type": "Feature", "properties": {"share": 0.66, "total": 1672, "postcodes": 1}, "geometry": {"type": "Polygon", "coordinates": [[[114.0, -23.0], [114.0, -22.0], [115.0, -22.0], [115.0, -23.0], [114.0, -23.0]]]}}, {"type": "Feature", "properties": {"share": 3.43, "total": 4757, "postcodes": 5}, "geometry": {"type": "Polygon", "coordinates": [[[115.0, -35.0], [115.0, -34.0], [116.0, -34.0], [116.0, -35.0], [115.0, -35.0]]]}}, {"type": "Feature", "properties": {"share": 3.5, "total": 106409, "postcodes": 24}, "geometry": {"type": "Polygon", "coordinates": [[[115.0, -34.0], [115.0, -33.0], [116.0, -33.0], [116.0, -34.0], [115.0, -34.0]]]}}, {"type": "Feature", "properties": {"share": 5.32, "total": 534522, "postcodes": 46}, "geometry": {"type": "Polygon", "coordinates": [[[115.0, -33.0], [115.0, -32.0], [116.0, -32.0], [116.0, -33.0], [115.0, -33.0]]]}}, {"type": "Feature", "properties": {"share": 6.79, "total": 735255, "postcodes": 67}, "geometry": {"type": "Polygon", "coordinates": [[[115.0, -32.0], [115.0, -31.0], [116.0, -31.0], [116.0, -32.0], [115.0, -32.0]]]}}, {"type": "Feature", "properties": {"share": 2.45, "total": 3803, "postcodes": 6}, "geometry": {"type": "Polygon", "coordinates": [[[115.0, -31.0], [115.0, -30.0], [116.0, -30.0], [116.0, -31.0], [115.0, -31.0]]]}}, {"type": "Feature", "properties": {"share": 2.11, "total": 3465, "postcodes": 7}, "geometry": {"type": "Polygon", "coordinates": [[[115.0, -30.0], [115.0, -29.0], [116.0, -29.0], [116.0, -30.0], [115.0, -30.0]]]}}, {"type": "Feature", "properties": {"share": 3.46, "total": 5061, "postcodes": 6}, "geometry": {"type": "Polygon", "coordinates": [[[116.0, -35.0], [116.0, -34.0], [117.0, -34.0], [117.0, -35.0], [116.0, -35.0]]]}}, {"type": "Feature", "properties": {"share": 2.43, "total": 10924, "postcodes": 9}, "geometry": {"type": "Polygon", "coordinates": [[[116.0, -34.0], [116.0, -33.0], [117.0, -33.0], [117.0, -34.0], [116.0, -34.0]]]}}, {"type": "Feature", "properties": {"share": 4.94, "total": 141846, "postcodes": 12}, "geometry": {"type": "Polygon", "coordinates": [[[116.0, -33.0], [116.0, -32.0], [117.0, -32.0], [117.0, -33.0], [116.0, -33.0]]]}}, {"type": "Feature", "properties": {"share": 4.09, "total": 122887, "postcodes": 30}, "geometry": {"type": "Polygon", "coordinates": [[[116.0, -32.0], [116.0, -31.0], [117.0, -31.0], [117.0, -32.0], [116.0, -32.0]]]}}, {"type": "Feature", "properties": {"share": 4.49, "total": 3004, "postcodes": 13}, "geometry": {"type": "Polygon", "coordinates": [[[116.0, -31.0], [116.0, -30.0], [117.0, -30.0], [117.0, -31.0], [116.0, -31.0]]]}}, {"type": "Feature", "properties": {"share": 2.91, "total": 585, "postcodes": 5}, "geometry": {"type": "Polygon", "coordinates": [[[116.0, -30.0], [116.0, -29.0], [117.0, -29.0], [117.0, -30.0], [116.0, -30.0]]]}}, {"type": "Feature", "properties": {"share": 2.79, "total": 718, "postcodes": 1}, "geometry": {"type": "Polygon", "coordinates": [[[116.0, -21.0], [116.0, -20.0], [117.0, -20.0], [117.0, -21.0], [116.0, -21.0]]]}}, {"type": "Feature", "properties": {"share": 2.97, "total": 34073, "postcodes": 9}, "geometry": {"type": "Polygon", "coordinates": [[[117.0, -35.0], [117.0, -34.0], [118.0, -34.0], [118.0, -35.0], [117.0, -35.0]]]}}, {"type": "Feature", "properties": {"share": 2.42, "total": 5547, "postcodes": 8}, "geometry": {"type": "Polygon", "coordinates": [[[117.0, -34.0], [117.0, -33.0], [118.0, -33.0], [118.0, -34.0], [117.0, -34.0]]]}}, {"type": "Feature", "properties": {"share": 2.4, "total": 6634, "postcodes": 11}, "geometry": {"type": "Polygon", "coordinates": [[[117.0, -33.0], [117.0, -32.0], [118.0, -32.0], [118.0, -33.0], [117.0, -33.0]]]}}, {"type": "Feature", "properties": {"share": 2.19, "total": 2782, "postcodes": 16}, "geometry": {"type": "Polygon", "coordinates": [[[117.0, -32.0], [117.0, -31.0], [118.0, -31.0], [118.0, -32.0], [117.0, -32.0]]]}}, {"type": "Feature", "properties": {"share": 2.98, "total": 705, "postcodes": 9}, "geometry": {"type": "Polygon", "coordinates": [[[117.0, -31.0], [117.0, -30.0], [118.0, -30.0], [118.0, -31.0], [117.0, -31.0]]]}}, {"type": "Feature", "properties": {"share": 0.97, "total": 620, "postcodes": 1}, "geometry": {"type": "Polygon", "coordinates": [[[117.0, -24.0], [117.0, -23.0], [118.0, -23.0], [118.0, -24.0], [117.0, -24.0]]]}}, {"type": "Feature", "properties": {"share": 0.97, "total": 1342, "postcodes": 1}, "geometry": {"type": "Polygon", "coordinates": [[[117.0, -23.0], [117.0, -22.0], [118.0, -22.0], [118.0, -23.0], [117.0, -23.0]]]}}, {"type": "Feature", "properties": {"share": 3.15, "total": 9009, "postcodes": 1}, "geometry": {"type": "Polygon", "coordinates": [[[117.0, -22.0], [117.0, -21.0], [118.0, -21.0], [118.0, -22.0], [117.0, -22.0]]]}}, {"type": "Feature", "properties": {"share": 2.95, "total": 1523, "postcodes": 2}, "geometry": {"type": "Polygon", "coordinates": [[[117.0, -21.0], [117.0, -20.0], [118.0, -20.0], [118.0, -21.0], [117.0, -21.0]]]}}, {"type": "Feature", "properties": {"share": 2.02, "total": 791, "postcodes": 2}, "geometry": {"type": "Polygon", "coordinates": [[[118.0, -35.0], [118.0, -34.0], [119.0, -34.0], [119.0, -35.0], [118.0, -35.0]]]}}, {"type": "Feature", "properties": {"share": 2.58, "total": 1549, "postcodes": 6}, "geometry": {"type": "Polygon", "coordinates": [[[118.0, -34.0], [118.0, -33.0], [119.0, -33.0], [119.0, -34.0], [118.0, -34.0]]]}}, {"type": "Feature", "properties": {"share": 2.42, "total": 1198, "postcodes": 9}, "geometry": {"type": "Polygon", "coordinates": [[[118.0, -33.0], [118.0, -32.0], [119.0, -32.0], [119.0, -33.0], [118.0, -33.0]]]}}, {"type": "Feature", "properties": {"share": 2.91, "total": 2545, "postcodes": 11}, "geometry": {"type": "Polygon", "coordinates": [[[118.0, -32.0], [118.0, -31.0], [119.0, -31.0], [119.0, -32.0], [118.0, -32.0]]]}}, {"type": "Feature", "properties": {"share": 5.49, "total": 2330, "postcodes": 1}, "geometry": {"type": "Polygon", "coordinates": [[[118.0, -21.0], [118.0, -20.0], [119.0, -20.0], [119.0, -21.0], [118.0, -21.0]]]}}, {"type": "Feature", "properties": {"share": 1.74, "total": 1095, "postcodes": 4}, "geometry": {"type": "Polygon", "coordinates": [[[119.0, -34.0], [119.0, -33.0], [120.0, -33.0], [120.0, -34.0], [119.0, -34.0]]]}}, {"type": "Feature", "properties": {"share": 2.37, "total": 506, "postcodes": 2}, "geometry": {"type": "Polygon", "coordinates": [[[119.0, -32.0], [119.0, -31.0], [120.0, -31.0], [120.0, -32.0], [119.0, -32.0]]]}}, {"type": "Feature", "properties": {"share": 1.58, "total": 1960, "postcodes": 1}, "geometry": {"type": "Polygon", "coordinates": [[[119.0, -23.0], [119.0, -22.0], [120.0, -22.0], [120.0, -23.0], [119.0, -23.0]]]}}, {"type": "Feature", "properties": {"share": 2.86, "total": 5243, "postcodes": 1}, "geometry": {"type": "Polygon", "coordinates": [[[119.0, -21.0], [119.0, -20.0], [120.0, -20.0], [120.0, -21.0], [119.0, -21.0]]]}}, {"type": "Feature", "properties": {"share": 1.2, "total": 584, "postcodes": 1}, "geometry": {"type": "Polygon", "coordinates": [[[120.0, -34.0], [120.0, -33.0], [121.0, -33.0], [121.0, -34.0], [120.0, -34.0]]]}}, {"type": "Feature", "properties": {"share": 2.85, "total": 8430, "postcodes": 4}, "geometry": {"type": "Polygon", "coordinates": [[[121.0, -34.0], [121.0, -33.0], [122.0, -33.0], [122.0, -34.0], [121.0, -34.0]]]}}, {"type": "Feature", "properties": {"share": 1.49, "total": 1277, "postcodes": 1}, "geometry": {"type": "Polygon", "coordinates": [[[121.0, -32.0], [121.0, -31.0], [122.0, -31.0], [122.0, -32.0], [121.0, -32.0]]]}}, {"type": "Feature", "properties": {"share": 3.45, "total": 15910, "postcodes": 2}, "geometry": {"type": "Polygon", "coordinates": [[[121.0, -31.0], [121.0, -30.0], [122.0, -30.0], [122.0, -31.0], [121.0, -31.0]]]}}, {"type": "Feature", "properties": {"share": 3.27, "total": 5561, "postcodes": 1}, "geometry": {"type": "Polygon", "coordinates": [[[122.0, -19.0], [122.0, -18.0], [123.0, -18.0], [123.0, -19.0], [122.0, -19.0]]]}}, {"type": "Feature", "properties": {"share": 3.25, "total": 2244, "postcodes": 1}, "geometry": {"type": "Polygon", "coordinates": [[[122.0, -18.0], [122.0, -17.0], [123.0, -17.0], [123.0, -18.0], [122.0, -18.0]]]}}, {"type": "Feature", "properties": {"share": 1.85, "total": 1733, "postcodes": 2}, "geometry": {"type": "Polygon", "coordinates": [[[124.0, -18.0], [124.0, -17.0], [125.0, -17.0], [125.0, -18.0], [124.0, -18.0]]]}}, {"type": "Feature", "properties": {"share": 4.31, "total": 2481, "postcodes": 1}, "geometry": {"type": "Polygon", "coordinates": [[[127.0, -17.0], [127.0, -16.0], [128.0, -16.0], [128.0, -17.0], [127.0, -17.0]]]}}, {"type": "Feature", "properties": {"share": 7.4, "total": 59896, "postcodes": 8}, "geometry": {"type": "Polygon", "coordinates": [[[130.0, -13.0], [130.0, -12.0], [131.0, -12.0], [131.0, -13.0], [130.0, -13.0]]]}}, {"type": "Feature", "properties": {"share": 2.07, "total": 1983, "postcodes": 1}, "geometry": {"type": "Polygon", "coordinates": [[[131.0, -30.0], [131.0, -29.0], [132.0, -29.0], [132.0, -30.0], [131.0, -30.0]]]}}, {"type": "Feature", "properties": {"share": 1.12, "total": 980, "postcodes": 1}, "geometry": {"type": "Polygon", "coordinates": [[[131.0, -24.0], [131.0, -23.0], [132.0, -23.0], [132.0, -24.0], [131.0, -24.0]]]}}, {"type": "Feature", "properties": {"share": 4.82, "total": 16908, "postcodes": 8}, "geometry": {"type": "Polygon", "coordinates": [[[131.0, -13.0], [131.0, -12.0], [132.0, -12.0], [132.0, -13.0], [131.0, -13.0]]]}}, {"type": "Feature", "properties": {"share": 0.85, "total": 591, "postcodes": 1}, "geometry": {"type": "Polygon", "coordinates": [[[132.0, -17.0], [132.0, -16.0], [133.0, -16.0], [133.0, -17.0], [132.0, -17.0]]]}}, {"type": "Feature", "properties": {"share": 3.5, "total": 3854, "postcodes": 2}, "geometry": {"type": "Polygon", "coordinates": [[[132.0, -15.0], [132.0, -14.0], [133.0, -14.0], [133.0, -15.0], [132.0, -15.0]]]}}, {"type": "Feature", "properties": {"share": 3.32, "total": 3254, "postcodes": 1}, "geometry": {"type": "Polygon", "coordinates": [[[132.0, -14.0], [132.0, -13.0], [133.0, -13.0], [133.0, -14.0], [132.0, -14.0]]]}}, {"type": "Feature", "properties": {"share": 4.28, "total": 12558, "postcodes": 4}, "geometry": {"type": "Polygon", "coordinates": [[[133.0, -24.0], [133.0, -23.0], [134.0, -23.0], [134.0, -24.0], [133.0, -24.0]]]}}, {"type": "Feature", "properties": {"share": 1.56, "total": 1473, "postcodes": 3}, "geometry": {"type": "Polygon", "coordinates": [[[134.0, -33.0], [134.0, -32.0], [135.0, -32.0], [135.0, -33.0], [134.0, -33.0]]]}}, {"type": "Feature", "properties": {"share": 2.64, "total": 832, "postcodes": 1}, "geometry": {"type": "Polygon", "coordinates": [[[134.0, -20.0], [134.0, -19.0], [135.0, -19.0], [135.0, -20.0], [134.0, -20.0]]]}}, {"type": "Feature", "properties": {"share": 2.31, "total": 12618, "postcodes": 5}, "geometry": {"type": "Polygon", "coordinates": [[[135.0, -35.0], [135.0, -34.0], [136.0, -34.0], [136.0, -35.0], [135.0, -35.0]]]}}, {"type": "Feature", "properties": {"share": 1.36, "total": 1033, "postcodes": 5}, "geometry": {"type": "Polygon", "coordinates": [[[135.0, -34.0], [135.0, -33.0], [136.0, -33.0], [136.0, -34.0], [135.0, -34.0]]]}}, {"type": "Feature", "properties": {"share": 1.18, "total": 930, "postcodes": 1}, "geometry": {"type": "Polygon", "coordinates": [[[135.0, -29.0], [135.0, -28.0], [136.0, -28.0], [136.0, -29.0], [135.0, -29.0]]]}}, {"type": "Feature", "properties": {"share": 1.74, "total": 1376, "postcodes": 2}, "geometry": {"type": "Polygon", "coordinates": [[[136.0, -35.0], [136.0, -34.0], [137.0, -34.0], [137.0, -35.0], [136.0, -35.0]]]}}, {"type": "Feature", "properties": {"share": 1.61, "total": 1929, "postcodes": 4}, "geometry": {"type": "Polygon", "coordinates": [[[136.0, -34.0], [136.0, -33.0], [137.0, -33.0], [137.0, -34.0], [136.0, -34.0]]]}}, {"type": "Feature", "properties": {"share": 3.13, "total": 575, "postcodes": 1}, "geometry": {"type": "Polygon", "coordinates": [[[136.0, -33.0], [136.0, -32.0], [137.0, -32.0], [137.0, -33.0], [136.0, -33.0]]]}}, {"type": "Feature", "properties": {"share": 1.67, "total": 2281, "postcodes": 2}, "geometry": {"type": "Polygon", "coordinates": [[[136.0, -31.0], [136.0, -30.0], [137.0, -30.0], [137.0, -31.0], [136.0, -31.0]]]}}, {"type": "Feature", "properties": {"share": 2.13, "total": 1172, "postcodes": 1}, "geometry": {"type": "Polygon", "coordinates": [[[136.0, -13.0], [136.0, -12.0], [137.0, -12.0], [137.0, -13.0], [136.0, -13.0]]]}}, {"type": "Feature", "properties": {"share": 2.11, "total": 5558, "postcodes": 7}, "geometry": {"type": "Polygon", "coordinates": [[[137.0, -36.0], [137.0, -35.0], [138.0, -35.0], [138.0, -36.0], [137.0, -36.0]]]}}, {"type": "Feature", "properties": {"share": 2.38, "total": 10165, "postcodes": 10}, "geometry": {"type": "Polygon", "coordinates": [[[137.0, -35.0], [137.0, -34.0], [138.0, -34.0], [138.0, -35.0], [137.0, -35.0]]]}}, {"type": "Feature", "properties": {"share": 3.04, "total": 21050, "postcodes": 8}, "geometry": {"type": "Polygon", "coordinates": [[[137.0, -34.0], [137.0, -33.0], [138.0, -33.0], [138.0, -34.0], [137.0, -34.0]]]}}, {"type": "Feature", "properties": {"share": 2.93, "total": 7692, "postcodes": 5}, "geometry": {"type": "Polygon", "coordinates": [[[137.0, -33.0], [137.0, -32.0], [138.0, -32.0], [138.0, -33.0], [137.0, -33.0]]]}}, {"type": "Feature", "properties": {"share": 4.28, "total": 261908, "postcodes": 45}, "geometry": {"type": "Polygon", "coordinates": [[[138.0, -36.0], [138.0, -35.0], [139.0, -35.0], [139.0, -36.0], [138.0, -36.0]]]}}, {"type": "Feature", "properties": {"share": 5.94, "total": 760246, "postcodes": 130}, "geometry": {"type": "Polygon", "coordinates": [[[138.0, -35.0], [138.0, -34.0], [139.0, -34.0], [139.0, -35.0], [138.0, -35.0]]]}}, {"type": "Feature", "properties": {"share": 2.74, "total": 19647, "postcodes": 25}, "geometry": {"type": "Polygon", "coordinates": [[[138.0, -34.0], [138.0, -33.0], [139.0, -33.0], [139.0, -34.0], [138.0, -34.0]]]}}, {"type": "Feature", "properties": {"share": 1.71, "total": 3557, "postcodes": 7}, "geometry": {"type": "Polygon", "coordinates": [[[138.0, -33.0], [138.0, -32.0], [139.0, -32.0], [139.0, -33.0], [138.0, -33.0]]]}}, {"type": "Feature", "properties": {"share": 2.76, "total": 8092, "postcodes": 1}, "geometry": {"type": "Polygon", "coordinates": [[[138.0, -21.0], [138.0, -20.0], [139.0, -20.0], [139.0, -21.0], [138.0, -21.0]]]}}, {"type": "Feature", "properties": {"share": 2.59, "total": 928, "postcodes": 1}, "geometry": {"type": "Polygon", "coordinates": [[[139.0, -38.0], [139.0, -37.0], [140.0, -37.0], [140.0, -38.0], [139.0, -38.0]]]}}, {"type": "Feature", "properties": {"share": 2.06, "total": 1453, "postcodes": 1}, "geometry": {"type": "Polygon", "coordinates": [[[139.0, -37.0], [139.0, -36.0], [140.0, -36.0], [140.0, -37.0], [139.0, -37.0]]]}}, {"type": "Feature", "properties": {"share": 1.8, "total": 19318, "postcodes": 9}, "geometry": {"type": "Polygon", "coordinates": [[[139.0, -36.0], [139.0, -35.0], [140.0, -35.0], [140.0, -36.0], [139.0, -36.0]]]}}, {"type": "Feature", "properties": {"share": 2.22, "total": 11676, "postcodes": 12}, "geometry": {"type": "Polygon", "coordinates": [[[139.0, -35.0], [139.0, -34.0], [140.0, -34.0], [140.0, -35.0], [139.0, -35.0]]]}}, {"type": "Feature", "properties": {"share": 1.01, "total": 1091, "postcodes": 5}, "geometry": {"type": "Polygon", "coordinates": [[[139.0, -34.0], [139.0, -33.0], [140.0, -33.0], [140.0, -34.0], [139.0, -34.0]]]}}, {"type": "Feature", "properties": {"share": 2.29, "total": 30549, "postcodes": 8}, "geometry": {"type": "Polygon", "coordinates": [[[140.0, -38.0], [140.0, -37.0], [141.0, -37.0], [141.0, -38.0], [140.0, -38.0]]]}}, {"type": "Feature", "properties": {"share": 2.3, "total": 8872, "postcodes": 7}, "geometry": {"type": "Polygon", "coordinates": [[[140.0, -37.0], [140.0, -36.0], [141.0, -36.0], [141.0, -37.0], [140.0, -37.0]]]}}, {"type": "Feature", "properties": {"share": 1.37, "total": 1899, "postcodes": 5}, "geometry": {"type": "Polygon", "coordinates": [[[140.0, -36.0], [140.0, -35.0], [141.0, -35.0], [141.0, -36.0], [140.0, -36.0]]]}}, {"type": "Feature", "properties": {"share": 2.14, "total": 20794, "postcodes": 14}, "geometry": {"type": "Polygon", "coordinates": [[[140.0, -35.0], [140.0, -34.0], [141.0, -34.0], [141.0, -35.0], [140.0, -35.0]]]}}, {"type": "Feature", "properties": {"share": 2.63, "total": 951, "postcodes": 1}, "geometry": {"type": "Polygon", "coordinates": [[[140.0, -34.0], [140.0, -33.0], [141.0, -33.0], [141.0, -34.0], [140.0, -34.0]]]}}, {"type": "Feature", "properties": {"share": 1.9, "total": 1104, "postcodes": 1}, "geometry": {"type": "Polygon", "coordinates": [[[140.0, -21.0], [140.0, -20.0], [141.0, -20.0], [141.0, -21.0], [140.0, -21.0]]]}}, {"type": "Feature", "properties": {"share": 1.84, "total": 11010, "postcodes": 4}, "geometry": {"type": "Polygon", "coordinates": [[[141.0, -39.0], [141.0, -38.0], [142.0, -38.0], [142.0, -39.0], [141.0, -39.0]]]}}, {"type": "Feature", "properties": {"share": 1.7, "total": 4990, "postcodes": 11}, "geometry": {"type": "Polygon", "coordinates": [[[141.0, -38.0], [141.0, -37.0], [142.0, -37.0], [142.0, -38.0], [141.0, -38.0]]]}}, {"type": "Feature", "properties": {"share": 1.79, "total": 3864, "postcodes": 9}, "geometry": {"type": "Polygon", "coordinates": [[[141.0, -37.0], [141.0, -36.0], [142.0, -36.0], [142.0, -37.0], [141.0, -37.0]]]}}, {"type": "Feature", "properties": {"share": 1.45, "total": 1654, "postcodes": 5}, "geometry": {"type": "Polygon", "coordinates": [[[141.0, -36.0], [141.0, -35.0], [142.0, -35.0], [142.0, -36.0], [141.0, -36.0]]]}}, {"type": "Feature", "properties": {"share": 1.39, "total": 6386, "postcodes": 2}, "geometry": {"type": "Polygon", "coordinates": [[[141.0, -35.0], [141.0, -34.0], [142.0, -34.0], [142.0, -35.0], [141.0, -35.0]]]}}, {"type": "Feature", "properties": {"share": 2.08, "total": 8591, "postcodes": 1}, "geometry": {"type": "Polygon", "coordinates": [[[141.0, -31.0], [141.0, -30.0], [142.0, -30.0], [142.0, -31.0], [141.0, -31.0]]]}}, {"type": "Feature", "properties": {"share": 0.79, "total": 506, "postcodes": 1}, "geometry": {"type": "Polygon", "coordinates": [[[141.0, -24.0], [141.0, -23.0], [142.0, -23.0], [142.0, -24.0], [141.0, -24.0]]]}}, {"type": "Feature", "properties": {"share": 3.46, "total": 36582, "postcodes": 16}, "geometry": {"type": "Polygon", "coordinates": [[[142.0, -39.0], [142.0, -38.0], [143.0, -38.0], [143.0, -39.0], [142.0, -39.0]]]}}, {"type": "Feature", "properties": {"share": 2.58, "total": 20194, "postcodes": 13}, "geometry": {"type": "Polygon", "coordinates": [[[142.0, -38.0], [142.0, -37.0], [143.0, -37.0], [143.0, -38.0], [142.0, -38.0]]]}}, {"type": "Feature", "properties": {"share": 2.57, "total": 18047, "postcodes": 12}, "geometry": {"type": "Polygon", "coordinates": [[[142.0, -37.0], [142.0, -36.0], [143.0, -36.0], [143.0, -37.0], [142.0, -37.0]]]}}, {"type": "Feature", "properties": {"share": 1.23, "total": 2691, "postcodes": 12}, "geometry": {"type": "Polygon", "coordinates": [[[142.0, -36.0], [142.0, -35.0], [143.0, -35.0], [143.0, -36.0], [142.0, -36.0]]]}}, {"type": "Feature", "properties": {"share": 2.48, "total": 31998, "postcodes": 9}, "geometry": {"type": "Polygon", "coordinates": [[[142.0, -35.0], [142.0, -34.0], [143.0, -34.0], [143.0, -35.0], [142.0, -35.0]]]}}, {"type": "Feature", "properties": {"share": 2.16, "total": 1020, "postcodes": 1}, "geometry": {"type": "Polygon", "coordinates": [[[142.0, -34.0], [142.0, -33.0], [143.0, -33.0], [143.0, -34.0], [142.0, -34.0]]]}}, {"type": "Feature", "properties": {"share": 1.35, "total": 594, "postcodes": 1}, "geometry": {"type": "Polygon", "coordinates": [[[142.0, -16.0], [142.0, -15.0], [143.0, -15.0], [143.0, -16.0], [142.0, -16.0]]]}}, {"type": "Feature", "properties": {"share": 0.92, "total": 2057, "postcodes": 1}, "geometry": {"type": "Polygon", "coordinates": [[[142.0, -13.0], [142.0, -12.0], [143.0, -12.0], [143.0, -13.0], [142.0, -13.0]]]}}, {"type": "Feature", "properties": {"share": 1.52, "total": 1714, "postcodes": 2}, "geometry": {"type": "Polygon", "coordinates": [[[142.0, -11.0], [142.0, -10.0], [143.0, -10.0], [143.0, -11.0], [142.0, -11.0]]]}}, {"type": "Feature", "properties": {"share": 0.33, "total": 897, "postcodes": 1}, "geometry": {"type": "Polygon", "coordinates": [[[143.0, -40.0], [143.0, -39.0], [144.0, -39.0], [144.0, -40.0], [143.0, -40.0]]]}}, {"type": "Feature", "properties": {"share": 2.84, "total": 24632, "postcodes": 22}, "geometry": {"type": "Polygon", "coordinates": [[[143.0, -39.0], [143.0, -38.0], [144.0, -38.0], [144.0, -39.0], [143.0, -39.0]]]}}, {"type": "Feature", "properties": {"share": 3.39, "total": 106884, "postcodes": 27}, "geometry": {"type": "Polygon", "coordinates": [[[143.0, -38.0], [143.0, -37.0], [144.0, -37.0], [144.0, -38.0], [143.0, -38.0]]]}}, {"type": "Feature", "properties": {"share": 1.58, "total": 6326, "postcodes": 11}, "geometry": {"type": "Polygon", "coordinates": [[[143.0, -37.0], [143.0, -36.0], [144.0, -36.0], [144.0, -37.0], [143.0, -37.0]]]}}, {"type": "Feature", "properties": {"share": 2.14, "total": 14341, "postcodes": 20}, "geometry": {"type": "Polygon", "coordinates": [[[143.0, -36.0], [143.0, -35.0], [144.0, -35.0], [144.0, -36.0], [143.0, -36.0]]]}}, {"type": "Feature", "properties": {"share": 1.01, "total": 593, "postcodes": 3}, "geometry": {"type": "Polygon", "coordinates": [[[143.0, -35.0], [143.0, -34.0], [144.0, -34.0], [144.0, -35.0], [143.0, -35.0]]]}}, {"type": "Feature", "properties": {"share": 2.05, "total": 584, "postcodes": 1}, "geometry": {"type": "Polygon", "coordinates": [[[143.0, -34.0], [143.0, -33.0], [144.0, -33.0], [144.0, -34.0], [143.0, -34.0]]]}}, {"type": "Feature", "properties": {"share": 3.9, "total": 1488, "postcodes": 1}, "geometry": {"type": "Polygon", "coordinates": [[[143.0, -24.0], [143.0, -23.0], [144.0, -23.0], [144.0, -24.0], [143.0, -24.0]]]}}, {"type": "Feature", "properties": {"share": 3.17, "total": 5073, "postcodes": 1}, "geometry": {"type": "Polygon", "coordinates": [[[143.0, -18.0], [143.0, -17.0], [144.0, -17.0], [144.0, -18.0], [143.0, -18.0]]]}}, {"type": "Feature", "properties": {"share": 2.25, "total": 3687, "postcodes": 1}, "geometry": {"type": "Polygon", "coordinates": [[[144.0, -41.0], [144.0, -40.0], [145.0, -40.0], [145.0, -41.0], [144.0, -41.0]]]}}, {"type": "Feature", "properties": {"share": 4.21, "total": 251715, "postcodes": 30}, "geometry": {"type": "Polygon", "coordinates": [[[144.0, -39.0], [144.0, -38.0], [145.0, -38.0], [145.0, -39.0], [144.0, -39.0]]]}}, {"type": "Feature", "properties": {"share": 7.1, "total": 1241282, "postcodes": 112}, "geometry": {"type": "Polygon", "coordinates": [[[144.0, -38.0], [144.0, -37.0], [145.0, -37.0], [145.0, -38.0], [144.0, -38.0]]]}}, {"type": "Feature", "properties": {"share": 3.28, "total": 102097, "postcodes": 27}, "geometry": {"type": "Polygon", "coordinates": [[[144.0, -37.0], [144.0, -36.0], [145.0, -36.0], [145.0, -37.0], [144.0, -37.0]]]}}, {"type": "Feature", "properties": {"share": 2.42, "total": 12804, "postcodes": 8}, "geometry": {"type": "Polygon", "coordinates": [[[144.0, -36.0], [144.0, -35.0], [145.0, -35.0], [145.0, -36.0], [144.0, -36.0]]]}}, {"type": "Feature", "properties": {"share": 2.92, "total": 1507, "postcodes": 1}, "geometry": {"type": "Polygon", "coordinates": [[[144.0, -35.0], [144.0, -34.0], [145.0, -34.0], [145.0, -35.0], [144.0, -35.0]]]}}, {"type": "Feature", "properties": {"share": 3.53, "total": 936, "postcodes": 1}, "geometry": {"type": "Polygon", "coordinates": [[[144.0, -30.0], [144.0, -29.0], [145.0, -29.0], [145.0, -30.0], [144.0, -30.0]]]}}, {"type": "Feature", "properties": {"share": 2.36, "total": 636, "postcodes": 1}, "geometry": {"type": "Polygon", "coordinates": [[[144.0, -21.0], [144.0, -20.0], [145.0, -20.0], [145.0, -21.0], [144.0, -21.0]]]}}, {"type": "Feature", "properties": {"share": 0.96, "total": 1868, "postcodes": 1}, "geometry": {"type": "Polygon", "coordinates": [[[144.0, -16.0], [144.0, -15.0], [145.0, -15.0], [145.0, -16.0], [144.0, -16.0]]]}}, {"type": "Feature", "properties": {"share": 1.22, "total": 1391, "postcodes": 3}, "geometry": {"type": "Polygon", "coordinates": [[[145.0, -43.0], [145.0, -42.0], [146.0, -42.0], [146.0, -43.0], [145.0, -43.0]]]}}, {"type": "Feature", "properties": {"share": 2.58, "total": 26667, "postcodes": 7}, "geometry": {"type": "Polygon", "coordinates": [[[145.0, -42.0], [145.0, -41.0], [146.0, -41.0], [146.0, -42.0], [145.0, -42.0]]]}}, {"type": "Feature", "properties": {"share": 5.25, "total": 636150, "postcodes": 64}, "geometry": {"type": "Polygon", "coordinates": [[[145.0, -39.0], [145.0, -38.0], [146.0, -38.0], [146.0, -39.0], [145.0, -39.0]]]}}, {"type": "Feature", "properties": {"share": 6.11, "total": 1457090, "postcodes": 154}, "geometry": {"type": "Polygon", "coordinates": [[[145.0, -38.0], [145.0, -37.0], [146.0, -37.0], [146.0, -38.0], [145.0, -38.0]]]}}, {"type": "Feature", "properties": {"share": 2.67, "total": 80637, "postcodes": 33}, "geometry": {"type": "Polygon", "coordinates": [[[145.0, -37.0], [145.0, -36.0], [146.0, -36.0], [146.0, -37.0], [145.0, -37.0]]]}}, {"type": "Feature", "properties": {"share": 2.42, "total": 12769, "postcodes": 9}, "geometry": {"type": "Polygon", "coordinates": [[[145.0, -36.0], [145.0, -35.0], [146.0, -35.0], [146.0, -36.0], [145.0, -36.0]]]}}, {"type": "Feature", "properties": {"share": 2.92, "total": 15983, "postcodes": 3}, "geometry": {"type": "Polygon", "coordinates": [[[145.0, -35.0], [145.0, -34.0], [146.0, -34.0], [146.0, -35.0], [145.0, -35.0]]]}}, {"type": "Feature", "properties": {"share": 2.59, "total": 3245, "postcodes": 2}, "geometry": {"type": "Polygon", "coordinates": [[[145.0, -34.0], [145.0, -33.0], [146.0, -33.0], [146.0, -34.0], [145.0, -34.0]]]}}, {"type": "Feature", "properties": {"share": 1.85, "total": 1568, "postcodes": 1}, "geometry": {"type": "Polygon", "coordinates": [[[145.0, -32.0], [145.0, -31.0], [146.0, -31.0], [146.0, -32.0], [145.0, -32.0]]]}}, {"type": "Feature", "properties": {"share": 2.01, "total": 647, "postcodes": 2}, "geometry": {"type": "Polygon", "coordinates": [[[145.0, -29.0], [145.0, -28.0], [146.0, -28.0], [146.0, -29.0], [145.0, -29.0]]]}}, {"type": "Feature", "properties": {"share": 1.07, "total": 653, "postcodes": 1}, "geometry": {"type": "Polygon", "coordinates": [[[145.0, -25.0], [145.0, -24.0], [146.0, -24.0], [146.0, -25.0], [145.0, -25.0]]]}}, {"type": "Feature", "properties": {"share": 2.71, "total": 701, "postcodes": 1}, "geometry": {"type": "Polygon", "coordinates": [[[145.0, -24.0], [145.0, -23.0], [146.0, -23.0], [146.0, -24.0], [145.0, -24.0]]]}}, {"type": "Feature", "properties": {"share": 3.36, "total": 4644, "postcodes": 1}, "geometry": {"type": "Polygon", "coordinates": [[[145.0, -22.0], [145.0, -21.0], [146.0, -21.0], [146.0, -22.0], [145.0, -22.0]]]}}, {"type": "Feature", "properties": {"share": 2.81, "total": 4799, "postcodes": 1}, "geometry": {"type": "Polygon", "coordinates": [[[145.0, -21.0], [145.0, -20.0], [146.0, -20.0], [146.0, -21.0], [145.0, -21.0]]]}}, {"type": "Feature", "properties": {"share": 3.1, "total": 9030, "postcodes": 3}, "geometry": {"type": "Polygon", "coordinates": [[[145.0, -19.0], [145.0, -18.0], [146.0, -18.0], [146.0, -19.0], [145.0, -19.0]]]}}, {"type": "Feature", "properties": {"share": 5.15, "total": 83672, "postcodes": 16}, "geometry": {"type": "Polygon", "coordinates": [[[145.0, -18.0], [145.0, -17.0], [146.0, -17.0], [146.0, -18.0], [145.0, -18.0]]]}}, {"type": "Feature", "properties": {"share": 4.54, "total": 52805, "postcodes": 7}, "geometry": {"type": "Polygon", "coordinates": [[[145.0, -17.0], [145.0, -16.0], [146.0, -16.0], [146.0, -17.0], [145.0, -17.0]]]}}, {"type": "Feature", "properties": {"share": 3.25, "total": 800, "postcodes": 1}, "geometry": {"type": "Polygon", "coordinates": [[[146.0, -44.0], [146.0, -43.0], [147.0, -43.0], [147.0, -44.0], [146.0, -44.0]]]}}, {"type": "Feature", "properties": {"share": 2.72, "total": 14800, "postcodes": 4}, "geometry": {"type": "Polygon", "coordinates": [[[146.0, -43.0], [146.0, -42.0], [147.0, -42.0], [147.0, -43.0], [146.0, -43.0]]]}}, {"type": "Feature", "properties": {"share": 2.72, "total": 59131, "postcodes": 13}, "geometry": {"type": "Polygon", "coordinates": [[[146.0, -42.0], [146.0, -41.0], [147.0, -41.0], [147.0, -42.0], [146.0, -42.0]]]}}, {"type": "Feature", "properties": {"share": 3.18, "total": 59668, "postcodes": 27}, "geometry": {"type": "Polygon", "coordinates": [[[146.0, -39.0], [146.0, -38.0], [147.0, -38.0], [147.0, -39.0], [146.0, -39.0]]]}}, {"type": "Feature", "properties": {"share": 2.5, "total": 29282, "postcodes": 8}, "geometry": {"type": "Polygon", "coordinates": [[[146.0, -38.0], [146.0, -37.0], [147.0, -37.0], [147.0, -38.0], [146.0, -38.0]]]}}, {"type": "Feature", "properties": {"share": 3.07, "total": 68685, "postcodes": 22}, "geometry": {"type": "Polygon", "coordinates": [[[146.0, -37.0], [146.0, -36.0], [147.0, -36.0], [147.0, -37.0], [146.0, -37.0]]]}}, {"type": "Feature", "properties": {"share": 4.08, "total": 35576, "postcodes": 9}, "geometry": {"type": "Polygon", "coordinates": [[[146.0, -36.0], [146.0, -35.0], [147.0, -35.0], [147.0, -36.0], [146.0, -36.0]]]}}, {"type": "Feature", "properties": {"share": 3.75, "total": 10813, "postcodes": 5}, "geometry": {"type": "Polygon", "coordinates": [[[146.0, -35.0], [146.0, -34.0], [147.0, -34.0], [147.0, -35.0], [146.0, -35.0]]]}}, {"type": "Feature", "properties": {"share": 2.93, "total": 1468, "postcodes": 2}, "geometry": {"type": "Polygon", "coordinates": [[[146.0, -34.0], [146.0, -33.0], [147.0, -33.0], [147.0, -34.0], [146.0, -34.0]]]}}, {"type": "Feature", "properties": {"share": 2.93, "total": 1606, "postcodes": 1}, "geometry": {"type": "Polygon", "coordinates": [[[146.0, -33.0], [146.0, -32.0], [147.0, -32.0], [147.0, -33.0], [146.0, -33.0]]]}}, {"type": "Feature", "properties": {"share": 1.69, "total": 1658, "postcodes": 2}, "geometry": {"type": "Polygon", "coordinates": [[[146.0, -27.0], [146.0, -26.0], [147.0, -26.0], [147.0, -27.0], [146.0, -27.0]]]}}, {"type": "Feature", "properties": {"share": 4.38, "total": 92964, "postcodes": 7}, "geometry": {"type": "Polygon", "coordinates": [[[146.0, -20.0], [146.0, -19.0], [147.0, -19.0], [147.0, -20.0], [146.0, -20.0]]]}}, {"type": "Feature", "properties": {"share": 4.47, "total": 3197, "postcodes": 2}, "geometry": {"type": "Polygon", "coordinates": [[[146.0, -18.0], [146.0, -17.0], [147.0, -17.0], [147.0, -18.0], [146.0, -18.0]]]}}, {"type": "Feature", "properties": {"share": 4.81, "total": 13942, "postcodes": 17}, "geometry": {"type": "Polygon", "coordinates": [[[147.0, -44.0], [147.0, -43.0], [148.0, -43.0], [148.0, -44.0], [147.0, -44.0]]]}}, {"type": "Feature", "properties": {"share": 6.13, "total": 161010, "postcodes": 38}, "geometry": {"type": "Polygon", "coordinates": [[[147.0, -43.0], [147.0, -42.0], [148.0, -42.0], [148.0, -43.0], [147.0, -43.0]]]}}, {"type": "Feature", "properties": {"share": 3.54, "total": 71177, "postcodes": 23}, "geometry": {"type": "Polygon", "coordinates": [[[147.0, -42.0], [147.0, -41.0], [148.0, -41.0], [148.0, -42.0], [147.0, -42.0]]]}}, {"type": "Feature", "properties": {"share": 1.94, "total": 1185, "postcodes": 1}, "geometry": {"type": "Polygon", "coordinates": [[[147.0, -41.0], [147.0, -40.0], [148.0, -40.0], [148.0, -41.0], [147.0, -41.0]]]}}, {"type": "Feature", "properties": {"share": 3.3, "total": 13410, "postcodes": 3}, "geometry": {"type": "Polygon", "coordinates": [[[147.0, -39.0], [147.0, -38.0], [148.0, -38.0], [148.0, -39.0], [147.0, -39.0]]]}}, {"type": "Feature", "properties": {"share": 2.36, "total": 24665, "postcodes": 14}, "geometry": {"type": "Polygon", "coordinates": [[[147.0, -38.0], [147.0, -37.0], [148.0, -37.0], [148.0, -38.0], [147.0, -38.0]]]}}, {"type": "Feature", "properties": {"share": 3.2, "total": 16067, "postcodes": 14}, "geometry": {"type": "Polygon", "coordinates": [[[147.0, -37.0], [147.0, -36.0], [148.0, -36.0], [148.0, -37.0], [147.0, -37.0]]]}}, {"type": "Feature", "properties": {"share": 5.2, "total": 40508, "postcodes": 8}, "geometry": {"type": "Polygon", "coordinates": [[[147.0, -36.0], [147.0, -35.0], [148.0, -35.0], [148.0, -36.0], [147.0, -36.0]]]}}, {"type": "Feature", "properties": {"share": 3.16, "total": 11609, "postcodes": 8}, "geometry": {"type": "Polygon", "coordinates": [[[147.0, -35.0], [147.0, -34.0], [148.0, -34.0], [148.0, -35.0], [147.0, -35.0]]]}}, {"type": "Feature", "properties": {"share": 3.75, "total": 6636, "postcodes": 3}, "geometry": {"type": "Polygon", "coordinates": [[[147.0, -34.0], [147.0, -33.0], [148.0, -33.0], [148.0, -34.0], [147.0, -34.0]]]}}, {"type": "Feature", "properties": {"share": 2.39, "total": 1545, "postcodes": 4}, "geometry": {"type": "Polygon", "coordinates": [[[147.0, -33.0], [147.0, -32.0], [148.0, -32.0], [148.0, -33.0], [147.0, -33.0]]]}}, {"type": "Feature", "properties": {"share": 4.83, "total": 2152, "postcodes": 3}, "geometry": {"type": "Polygon", "coordinates": [[[147.0, -32.0], [147.0, -31.0], [148.0, -31.0], [148.0, -32.0], [147.0, -32.0]]]}}, {"type": "Feature", "properties": {"share": 1.96, "total": 1070, "postcodes": 1}, "geometry": {"type": "Polygon", "coordinates": [[[147.0, -31.0], [147.0, -30.0], [148.0, -30.0], [148.0, -31.0], [147.0, -31.0]]]}}, {"type": "Feature", "properties": {"share": 1.16, "total": 1120, "postcodes": 2}, "geometry": {"type": "Polygon", "coordinates": [[[147.0, -30.0], [147.0, -29.0], [148.0, -29.0], [148.0, -30.0], [147.0, -30.0]]]}}, {"type": "Feature", "properties": {"share": 1.48, "total": 608, "postcodes": 2}, "geometry": {"type": "Polygon", "coordinates": [[[147.0, -27.0], [147.0, -26.0], [148.0, -26.0], [148.0, -27.0], [147.0, -27.0]]]}}, {"type": "Feature", "properties": {"share": 2.37, "total": 803, "postcodes": 1}, "geometry": {"type": "Polygon", "coordinates": [[[147.0, -25.0], [147.0, -24.0], [148.0, -24.0], [148.0, -25.0], [147.0, -25.0]]]}}, {"type": "Feature", "properties": {"share": 2.98, "total": 7954, "postcodes": 1}, "geometry": {"type": "Polygon", "coordinates": [[[147.0, -24.0], [147.0, -23.0], [148.0, -23.0], [148.0, -24.0], [147.0, -24.0]]]}}, {"type": "Feature", "properties": {"share": 1.97, "total": 1775, "postcodes": 1}, "geometry": {"type": "Polygon", "coordinates": [[[147.0, -23.0], [147.0, -22.0], [148.0, -22.0], [148.0, -23.0], [147.0, -23.0]]]}}, {"type": "Feature", "properties": {"share": 3.52, "total": 4232, "postcodes": 1}, "geometry": {"type": "Polygon", "coordinates": [[[147.0, -22.0], [147.0, -21.0], [148.0, -21.0], [148.0, -22.0], [147.0, -22.0]]]}}, {"type": "Feature", "properties": {"share": 2.09, "total": 7174, "postcodes": 2}, "geometry": {"type": "Polygon", "coordinates": [[[147.0, -21.0], [147.0, -20.0], [148.0, -20.0], [148.0, -21.0], [147.0, -21.0]]]}}, {"type": "Feature", "properties": {"share": 5.01, "total": 22452, "postcodes": 5}, "geometry": {"type": "Polygon", "coordinates": [[[147.0, -20.0], [147.0, -19.0], [148.0, -19.0], [148.0, -20.0], [147.0, -20.0]]]}}, {"type": "Feature", "properties": {"share": 2.16, "total": 5361, "postcodes": 3}, "geometry": {"type": "Polygon", "coordinates": [[[148.0, -42.0], [148.0, -41.0], [149.0, -41.0], [149.0, -42.0], [148.0, -42.0]]]}}, {"type": "Feature", "properties": {"share": 0.0, "total": 708, "postcodes": 2}, "geometry": {"type": "Polygon", "coordinates": [[[148.0, -41.0], [148.0, -40.0], [149.0, -40.0], [149.0, -41.0], [148.0, -41.0]]]}}, {"type": "Feature", "properties": {"share": 2.27, "total": 9414, "postcodes": 6}, "geometry": {"type": "Polygon", "coordinates": [[[148.0, -38.0], [148.0, -37.0], [149.0, -37.0], [149.0, -38.0], [148.0, -38.0]]]}}, {"type": "Feature", "properties": {"share": 3.26, "total": 4514, "postcodes": 5}, "geometry": {"type": "Polygon", "coordinates": [[[148.0, -37.0], [148.0, -36.0], [149.0, -36.0], [149.0, -37.0], [148.0, -37.0]]]}}, {"type": "Feature", "properties": {"share": 8.2, "total": 31957, "postcodes": 7}, "geometry": {"type": "Polygon", "coordinates": [[[148.0, -36.0], [148.0, -35.0], [149.0, -35.0], [149.0, -36.0], [148.0, -36.0]]]}}, {"type": "Feature", "properties": {"share": 4.51, "total": 20930, "postcodes": 12}, "geometry": {"type": "Polygon", "coordinates": [[[148.0, -35.0], [148.0, -34.0], [149.0, -34.0], [149.0, -35.0], [148.0, -35.0]]]}}, {"type": "Feature", "properties": {"share": 3.6, "total": 18811, "postcodes": 12}, "geometry": {"type": "Polygon", "coordinates": [[[148.0, -34.0], [148.0, -33.0], [149.0, -33.0], [149.0, -34.0], [148.0, -34.0]]]}}, {"type": "Feature", "properties": {"share": 5.38, "total": 32403, "postcodes": 7}, "geometry": {"type": "Polygon", "coordinates": [[[148.0, -33.0], [148.0, -32.0], [149.0, -32.0], [149.0, -33.0], [148.0, -33.0]]]}}, {"type": "Feature", "properties": {"share": 3.43, "total": 2394, "postcodes": 4}, "geometry": {"type": "Polygon", "coordinates": [[[148.0, -32.0], [148.0, -31.0], [149.0, -31.0], [149.0, -32.0], [148.0, -32.0]]]}}, {"type": "Feature", "properties": {"share": 2.29, "total": 1613, "postcodes": 3}, "geometry": {"type": "Polygon", "coordinates": [[[148.0, -31.0], [148.0, -30.0], [149.0, -30.0], [149.0, -31.0], [148.0, -31.0]]]}}, {"type": "Feature", "properties": {"share": 3.0, "total": 1301, "postcodes": 3}, "geometry": {"type": "Polygon", "coordinates": [[[148.0, -30.0], [148.0, -29.0], [149.0, -29.0], [149.0, -30.0], [148.0, -30.0]]]}}, {"type": "Feature", "properties": {"share": 3.19, "total": 1506, "postcodes": 1}, "geometry": {"type": "Polygon", "coordinates": [[[148.0, -28.0], [148.0, -27.0], [149.0, -27.0], [149.0, -28.0], [148.0, -28.0]]]}}, {"type": "Feature", "properties": {"share": 3.06, "total": 4317, "postcodes": 3}, "geometry": {"type": "Polygon", "coordinates": [[[148.0, -27.0], [148.0, -26.0], [149.0, -26.0], [149.0, -27.0], [148.0, -27.0]]]}}, {"type": "Feature", "properties": {"share": 2.14, "total": 3358, "postcodes": 3}, "geometry": {"type": "Polygon", "coordinates": [[[148.0, -24.0], [148.0, -23.0], [149.0, -23.0], [149.0, -24.0], [148.0, -24.0]]]}}, {"type": "Feature", "properties": {"share": 2.1, "total": 1809, "postcodes": 2}, "geometry": {"type": "Polygon", "coordinates": [[[148.0, -23.0], [148.0, -22.0], [149.0, -22.0], [149.0, -23.0], [148.0, -23.0]]]}}, {"type": "Feature", "properties": {"share": 2.37, "total": 4778, "postcodes": 6}, "geometry": {"type": "Polygon", "coordinates": [[[148.0, -22.0], [148.0, -21.0], [149.0, -21.0], [149.0, -22.0], [148.0, -22.0]]]}}, {"type": "Feature", "properties": {"share": 2.53, "total": 17451, "postcodes": 5}, "geometry": {"type": "Polygon", "coordinates": [[[148.0, -21.0], [148.0, -20.0], [149.0, -20.0], [149.0, -21.0], [148.0, -21.0]]]}}, {"type": "Feature", "properties": {"share": 1.83, "total": 3115, "postcodes": 4}, "geometry": {"type": "Polygon", "coordinates": [[[149.0, -38.0], [149.0, -37.0], [150.0, -37.0], [150.0, -38.0], [149.0, -38.0]]]}}, {"type": "Feature", "properties": {"share": 3.57, "total": 24973, "postcodes": 7}, "geometry": {"type": "Polygon", "coordinates": [[[149.0, -37.0], [149.0, -36.0], [150.0, -36.0], [150.0, -37.0], [149.0, -37.0]]]}}, {"type": "Feature", "properties": {"share": 8.64, "total": 305795, "postcodes": 31}, "geometry": {"type": "Polygon", "coordinates": [[[149.0, -36.0], [149.0, -35.0], [150.0, -35.0], [150.0, -36.0], [149.0, -36.0]]]}}, {"type": "Feature", "properties": {"share": 4.08, "total": 22764, "postcodes": 3}, "geometry": {"type": "Polygon", "coordinates": [[[149.0, -35.0], [149.0, -34.0], [150.0, -34.0], [150.0, -35.0], [149.0, -35.0]]]}}, {"type": "Feature", "properties": {"share": 5.62, "total": 60157, "postcodes": 7}, "geometry": {"type": "Polygon", "coordinates": [[[149.0, -34.0], [149.0, -33.0], [150.0, -33.0], [150.0, -34.0], [149.0, -34.0]]]}}, {"type": "Feature", "properties": {"share": 3.54, "total": 14189, "postcodes": 4}, "geometry": {"type": "Polygon", "coordinates": [[[149.0, -33.0], [149.0, -32.0], [150.0, -32.0], [150.0, -33.0], [149.0, -33.0]]]}}, {"type": "Feature", "properties": {"share": 3.54, "total": 3615, "postcodes": 5}, "geometry": {"type": "Polygon", "coordinates": [[[149.0, -32.0], [149.0, -31.0], [150.0, -31.0], [150.0, -32.0], [149.0, -32.0]]]}}, {"type": "Feature", "properties": {"share": 3.19, "total": 5575, "postcodes": 3}, "geometry": {"type": "Polygon", "coordinates": [[[149.0, -31.0], [149.0, -30.0], [150.0, -30.0], [150.0, -31.0], [149.0, -31.0]]]}}, {"type": "Feature", "properties": {"share": 2.6, "total": 4454, "postcodes": 3}, "geometry": {"type": "Polygon", "coordinates": [[[149.0, -30.0], [149.0, -29.0], [150.0, -29.0], [150.0, -30.0], [149.0, -30.0]]]}}, {"type": "Feature", "properties": {"share": 1.75, "total": 741, "postcodes": 5}, "geometry": {"type": "Polygon", "coordinates": [[[149.0, -29.0], [149.0, -28.0], [150.0, -28.0], [150.0, -29.0], [149.0, -29.0]]]}}, {"type": "Feature", "properties": {"share": 7.66, "total": 627, "postcodes": 3}, "geometry": {"type": "Polygon", "coordinates": [[[149.0, -28.0], [149.0, -27.0], [150.0, -27.0], [150.0, -28.0], [149.0, -28.0]]]}}, {"type": "Feature", "properties": {"share": 1.25, "total": 880, "postcodes": 6}, "geometry": {"type": "Polygon", "coordinates": [[[149.0, -27.0], [149.0, -26.0], [150.0, -26.0], [150.0, -27.0], [149.0, -27.0]]]}}, {"type": "Feature", "properties": {"share": 1.33, "total": 978, "postcodes": 2}, "geometry": {"type": "Polygon", "coordinates": [[[149.0, -26.0], [149.0, -25.0], [150.0, -25.0], [150.0, -26.0], [149.0, -26.0]]]}}, {"type": "Feature", "properties": {"share": 2.07, "total": 1399, "postcodes": 2}, "geometry": {"type": "Polygon", "coordinates": [[[149.0, -25.0], [149.0, -24.0], [150.0, -24.0], [150.0, -25.0], [149.0, -25.0]]]}}, {"type": "Feature", "properties": {"share": 2.51, "total": 16175, "postcodes": 2}, "geometry": {"type": "Polygon", "coordinates": [[[149.0, -24.0], [149.0, -23.0], [150.0, -23.0], [150.0, -24.0], [149.0, -24.0]]]}}, {"type": "Feature", "properties": {"share": 3.38, "total": 62272, "postcodes": 6}, "geometry": {"type": "Polygon", "coordinates": [[[149.0, -22.0], [149.0, -21.0], [150.0, -21.0], [150.0, -22.0], [149.0, -22.0]]]}}, {"type": "Feature", "properties": {"share": 3.67, "total": 6191, "postcodes": 1}, "geometry": {"type": "Polygon", "coordinates": [[[150.0, -37.0], [150.0, -36.0], [151.0, -36.0], [151.0, -37.0], [150.0, -37.0]]]}}, {"type": "Feature", "properties": {"share": 4.26, "total": 26785, "postcodes": 3}, "geometry": {"type": "Polygon", "coordinates": [[[150.0, -36.0], [150.0, -35.0], [151.0, -35.0], [151.0, -36.0], [150.0, -36.0]]]}}, {"type": "Feature", "properties": {"share": 5.04, "total": 467521, "postcodes": 41}, "geometry": {"type": "Polygon", "coordinates": [[[150.0, -35.0], [150.0, -34.0], [151.0, -34.0], [151.0, -35.0], [150.0, -35.0]]]}}, {"type": "Feature", "properties": {"share": 6.47, "total": 1027438, "postcodes": 74}, "geometry": {"type": "Polygon", "coordinates": [[[150.0, -34.0], [150.0, -33.0], [151.0, -33.0], [151.0, -34.0], [150.0, -34.0]]]}}, {"type": "Feature", "properties": {"share": 3.92, "total": 24544, "postcodes": 5}, "geometry": {"type": "Polygon", "coordinates": [[[150.0, -33.0], [150.0, -32.0], [151.0, -32.0], [151.0, -33.0], [150.0, -33.0]]]}}, {"type": "Feature", "properties": {"share": 4.38, "total": 35795, "postcodes": 8}, "geometry": {"type": "Polygon", "coordinates": [[[150.0, -32.0], [150.0, -31.0], [151.0, -31.0], [151.0, -32.0], [150.0, -32.0]]]}}, {"type": "Feature", "properties": {"share": 2.68, "total": 8902, "postcodes": 5}, "geometry": {"type": "Polygon", "coordinates": [[[150.0, -31.0], [150.0, -30.0], [151.0, -30.0], [151.0, -31.0], [150.0, -31.0]]]}}, {"type": "Feature", "properties": {"share": 1.63, "total": 2573, "postcodes": 7}, "geometry": {"type": "Polygon", "coordinates": [[[150.0, -30.0], [150.0, -29.0], [151.0, -29.0], [151.0, -30.0], [150.0, -30.0]]]}}, {"type": "Feature", "properties": {"share": 3.08, "total": 4158, "postcodes": 4}, "geometry": {"type": "Polygon", "coordinates": [[[150.0, -29.0], [150.0, -28.0], [151.0, -28.0], [151.0, -29.0], [150.0, -29.0]]]}}, {"type": "Feature", "properties": {"share": 1.54, "total": 2079, "postcodes": 2}, "geometry": {"type": "Polygon", "coordinates": [[[150.0, -28.0], [150.0, -27.0], [151.0, -27.0], [151.0, -28.0], [150.0, -28.0]]]}}, {"type": "Feature", "properties": {"share": 2.51, "total": 5701, "postcodes": 5}, "geometry": {"type": "Polygon", "coordinates": [[[150.0, -27.0], [150.0, -26.0], [151.0, -26.0], [151.0, -27.0], [150.0, -27.0]]]}}, {"type": "Feature", "properties": {"share": 1.99, "total": 957, "postcodes": 2}, "geometry": {"type": "Polygon", "coordinates": [[[150.0, -26.0], [150.0, -25.0], [151.0, -25.0], [151.0, -26.0], [150.0, -26.0]]]}}, {"type": "Feature", "properties": {"share": 3.14, "total": 4266, "postcodes": 2}, "geometry": {"type": "Polygon", "coordinates": [[[150.0, -25.0], [150.0, -24.0], [151.0, -24.0], [151.0, -25.0], [150.0, -25.0]]]}}, {"type": "Feature", "properties": {"share": 4.04, "total": 57522, "postcodes": 10}, "geometry": {"type": "Polygon", "coordinates": [[[150.0, -24.0], [150.0, -23.0], [151.0, -23.0], [151.0, -24.0], [150.0, -24.0]]]}}, {"type": "Feature", "properties": {"share": 6.27, "total": 126873, "postcodes": 10}, "geometry": {"type": "Polygon", "coordinates": [[[151.0, -35.0], [151.0, -34.0], [152.0, -34.0], [152.0, -35.0], [151.0, -35.0]]]}}, {"type": "Feature", "properties": {"share": 8.86, "total": 1777241, "postcodes": 168}, "geometry": {"type": "Polygon", "coordinates": [[[151.0, -34.0], [151.0, -33.0], [152.0, -33.0], [152.0, -34.0], [151.0, -34.0]]]}}, {"type": "Feature", "properties": {"share": 4.78, "total": 315584, "postcodes": 42}, "geometry": {"type": "Polygon", "coordinates": [[[151.0, -33.0], [151.0, -32.0], [152.0, -32.0], [152.0, -33.0], [151.0, -33.0]]]}}, {"type": "Feature", "properties": {"share": 3.25, "total": 10968, "postcodes": 4}, "geometry": {"type": "Polygon", "coordinates": [[[151.0, -32.0], [151.0, -31.0], [152.0, -31.0], [152.0, -32.0], [151.0, -32.0]]]}}, {"type": "Feature", "properties": {"share": 3.44, "total": 19496, "postcodes": 6}, "geometry": {"type": "Polygon", "coordinates": [[[151.0, -31.0], [151.0, -30.0], [152.0, -30.0], [152.0, -31.0], [151.0, -31.0]]]}}, {"type": "Feature", "properties": {"share": 2.1, "total": 12672, "postcodes": 5}, "geometry": {"type": "Polygon", "coordinates": [[[151.0, -30.0], [151.0, -29.0], [152.0, -29.0], [152.0, -30.0], [151.0, -30.0]]]}}, {"type": "Feature", "properties": {"share": 2.19, "total": 8611, "postcodes": 12}, "geometry": {"type": "Polygon", "coordinates": [[[151.0, -29.0], [151.0, -28.0], [152.0, -28.0], [152.0, -29.0], [151.0, -29.0]]]}}, {"type": "Feature", "properties": {"share": 4.63, "total": 114886, "postcodes": 17}, "geometry": {"type": "Polygon", "coordinates": [[[151.0, -28.0], [151.0, -27.0], [152.0, -27.0], [152.0, -28.0], [151.0, -28.0]]]}}, {"type": "Feature", "properties": {"share": 2.15, "total": 20360, "postcodes": 12}, "geometry": {"type": "Polygon", "coordinates": [[[151.0, -27.0], [151.0, -26.0], [152.0, -26.0], [152.0, -27.0], [151.0, -27.0]]]}}, {"type": "Feature", "properties": {"share": 1.26, "total": 6291, "postcodes": 3}, "geometry": {"type": "Polygon", "coordinates": [[[151.0, -26.0], [151.0, -25.0], [152.0, -25.0], [152.0, -26.0], [151.0, -26.0]]]}}, {"type": "Feature", "properties": {"share": 3.88, "total": 38837, "postcodes": 6}, "geometry": {"type": "Polygon", "coordinates": [[[151.0, -25.0], [151.0, -24.0], [152.0, -24.0], [152.0, -25.0], [151.0, -25.0]]]}}, {"type": "Feature", "properties": {"share": 3.62, "total": 43176, "postcodes": 8}, "geometry": {"type": "Polygon", "coordinates": [[[152.0, -33.0], [152.0, -32.0], [153.0, -32.0], [153.0, -33.0], [152.0, -33.0]]]}}, {"type": "Feature", "properties": {"share": 3.36, "total": 90481, "postcodes": 11}, "geometry": {"type": "Polygon", "coordinates": [[[152.0, -32.0], [152.0, -31.0], [153.0, -31.0], [153.0, -32.0], [152.0, -32.0]]]}}, {"type": "Feature", "properties": {"share": 3.07, "total": 62409, "postcodes": 8}, "geometry": {"type": "Polygon", "coordinates": [[[152.0, -31.0], [152.0, -30.0], [153.0, -30.0], [153.0, -31.0], [152.0, -31.0]]]}}, {"type": "Feature", "properties": {"share": 2.69, "total": 19515, "postcodes": 2}, "geometry": {"type": "Polygon", "coordinates": [[[152.0, -30.0], [152.0, -29.0], [153.0, -29.0], [153.0, -30.0], [152.0, -30.0]]]}}, {"type": "Feature", "properties": {"share": 2.58, "total": 49550, "postcodes": 15}, "geometry": {"type": "Polygon", "coordinates": [[[152.0, -29.0], [152.0, -28.0], [153.0, -28.0], [153.0, -29.0], [152.0, -29.0]]]}}, {"type": "Feature", "properties": {"share": 5.86, "total": 636514, "postcodes": 51}, "geometry": {"type": "Polygon", "coordinates": [[[152.0, -28.0], [152.0, -27.0], [153.0, -27.0], [153.0, -28.0], [152.0, -28.0]]]}}, {"type": "Feature", "properties": {"share": 3.87, "total": 135392, "postcodes": 24}, "geometry": {"type": "Polygon", "coordinates": [[[152.0, -27.0], [152.0, -26.0], [153.0, -26.0], [153.0, -27.0], [152.0, -27.0]]]}}, {"type": "Feature", "properties": {"share": 2.78, "total": 76370, "postcodes": 7}, "geometry": {"type": "Polygon", "coordinates": [[[152.0, -26.0], [152.0, -25.0], [153.0, -25.0], [153.0, -26.0], [152.0, -26.0]]]}}, {"type": "Feature", "properties": {"share": 2.9, "total": 53053, "postcodes": 2}, "geometry": {"type": "Polygon", "coordinates": [[[152.0, -25.0], [152.0, -24.0], [153.0, -24.0], [153.0, -25.0], [152.0, -25.0]]]}}, {"type": "Feature", "properties": {"share": 3.25, "total": 22532, "postcodes": 3}, "geometry": {"type": "Polygon", "coordinates": [[[153.0, -31.0], [153.0, -30.0], [154.0, -30.0], [154.0, -31.0], [153.0, -31.0]]]}}, {"type": "Feature", "properties": {"share": 3.26, "total": 16001, "postcodes": 8}, "geometry": {"type": "Polygon", "coordinates": [[[153.0, -30.0], [153.0, -29.0], [154.0, -29.0], [154.0, -30.0], [153.0, -30.0]]]}}, {"type": "Feature", "properties": {"share": 5.27, "total": 365731, "postcodes": 27}, "geometry": {"type": "Polygon", "coordinates": [[[153.0, -29.0], [153.0, -28.0], [154.0, -28.0], [154.0, -29.0], [153.0, -29.0]]]}}, {"type": "Feature", "properties": {"share": 7.6, "total": 1209496, "postcodes": 95}, "geometry": {"type": "Polygon", "coordinates": [[[153.0, -28.0], [153.0, -27.0], [154.0, -27.0], [154.0, -28.0], [153.0, -28.0]]]}}, {"type": "Feature", "properties": {"share": 5.28, "total": 198851, "postcodes": 12}, "geometry": {"type": "Polygon", "coordinates": [[[153.0, -27.0], [153.0, -26.0], [154.0, -26.0], [154.0, -27.0], [153.0, -27.0]]]}}, {"type": "Feature", "properties": {"share": 2.41, "total": 4735, "postcodes": 2}, "geometry": {"type": "Polygon", "coordinates": [[[153.0, -26.0], [153.0, -25.0], [154.0, -25.0], [154.0, -26.0], [153.0, -26.0]]]}}]}